{"fetched_at":"2026-03-30T06:02:59Z","count":15439,"tles":[{"name":"STARLINK-32471","line1":"1 61968U 24210K   26087.65658752  .00024440  00000+0  89433-3 0  9999","line2":"2 61968  43.0051  65.5444 0001500 276.4376  83.6305 15.27593777 77905","category":"Starlink"}]}